{
  "type": "FeatureCollection",
  "features": [
    {
      "type": "Feature",
      "properties": {
        "norad_id": 30349,
        "name": "FENGYUN 1C DEB",
        "group": "fengyun-1c-debris",
        "lat": -43.36598781280011,
        "lon": -51.64863208737085,
        "alt_km": 853.6588101883372,
        "timestamp": "2025-12-03T06:58:43.513713+00:00",
        "meta_object_name": "FENGYUN 1C DEB",
        "meta_object_id": "1999-025ABL",
        "meta_epoch": "2025-12-02T19:33:40.471200",
        "meta_mean_motion": 14.10976518,
        "meta_eccentricity": 0.0089605,
        "meta_inclination": 98.5832,
        "meta_ra_of_asc_node": 299.6953,
        "meta_arg_of_pericenter": 40.0192,
        "meta_mean_anomaly": 21.9806,
        "meta_ephemeris_type": 0,
        "meta_classification_type": "U",
        "meta_norad_cat_id": 30349,
        "meta_element_set_no": 999,
        "meta_rev_at_epoch": 96091,
        "meta_bstar": 0.0026803,
        "meta_mean_motion_dot": 4.96e-05,
        "meta_mean_motion_ddot": 0,
        "tle_line1": "1 30349U 99025ABL 25336.81505175  .00004960  00000+0  26803-2 0  9994",
        "tle_line2": "2 30349  98.5832 299.6953 0089605  40.0192  21.9806 14.10976518960916"
      },
      "geometry": {
        "type": "Point",
        "coordinates": [
          -51.64863208737085,
          -43.36598781280011
        ]
      }
    },
    {
      "type": "Feature",
      "properties": {
        "norad_id": 30350,
        "name": "FENGYUN 1C DEB",
        "group": "fengyun-1c-debris",
        "lat": 43.44738719646515,
        "lon": -15.28137025894569,
        "alt_km": 1102.2925817885216,
        "timestamp": "2025-12-03T06:58:43.513723+00:00",
        "meta_object_name": "FENGYUN 1C DEB",
        "meta_object_id": "1999-025ABM",
        "meta_epoch": "2025-12-02T11:21:09.520704",
        "meta_mean_motion": 13.82783994,
        "meta_eccentricity": 0.02195475,
        "meta_inclination": 98.0929,
        "meta_ra_of_asc_node": 156.2693,
        "meta_arg_of_pericenter": 337.0745,
        "meta_mean_anomaly": 49.4769,
        "meta_ephemeris_type": 0,
        "meta_classification_type": "U",
        "meta_norad_cat_id": 30350,
        "meta_element_set_no": 999,
        "meta_rev_at_epoch": 94840,
        "meta_bstar": 0.00083660966,
        "meta_mean_motion_dot": 1.059e-05,
        "meta_mean_motion_ddot": 0,
        "tle_line1": "1 30350U 99025ABM 25336.47302686  .00001059  00000+0  83661-3 0  9992",
        "tle_line2": "2 30350  98.0929 156.2693 0219547 337.0745  49.4769 13.82783994948407"
      },
      "geometry": {
        "type": "Point",
        "coordinates": [
          -15.28137025894569,
          43.44738719646515
        ]
      }
    },
    {
      "type": "Feature",
      "properties": {
        "norad_id": 30352,
        "name": "FENGYUN 1C DEB",
        "group": "fengyun-1c-debris",
        "lat": -73.11869621920157,
        "lon": 29.207556284414036,
        "alt_km": 865.2929802894587,
        "timestamp": "2025-12-03T06:58:43.513735+00:00",
        "meta_object_name": "FENGYUN 1C DEB",
        "meta_object_id": "1999-025ABP",
        "meta_epoch": "2025-12-02T20:14:28.794912",
        "meta_mean_motion": 14.07572889,
        "meta_eccentricity": 0.002823,
        "meta_inclination": 98.7651,
        "meta_ra_of_asc_node": 358.2164,
        "meta_arg_of_pericenter": 347.6945,
        "meta_mean_anomaly": 191.3086,
        "meta_ephemeris_type": 0,
        "meta_classification_type": "U",
        "meta_norad_cat_id": 30352,
        "meta_element_set_no": 999,
        "meta_rev_at_epoch": 96771,
        "meta_bstar": 0.00019337,
        "meta_mean_motion_dot": 2.85e-06,
        "meta_mean_motion_ddot": 0,
        "tle_line1": "1 30352U 99025ABP 25336.84338883  .00000285  00000+0  19337-3 0  9992",
        "tle_line2": "2 30352  98.7651 358.2164 0028230 347.6945 191.3086 14.07572889967712"
      },
      "geometry": {
        "type": "Point",
        "coordinates": [
          29.207556284414036,
          -73.11869621920157
        ]
      }
    },
    {
      "type": "Feature",
      "properties": {
        "norad_id": 30355,
        "name": "FENGYUN 1C DEB",
        "group": "fengyun-1c-debris",
        "lat": -71.81350111973019,
        "lon": 134.54783395998072,
        "alt_km": 831.9682314164893,
        "timestamp": "2025-12-03T06:58:43.513745+00:00",
        "meta_object_name": "FENGYUN 1C DEB",
        "meta_object_id": "1999-025ABS",
        "meta_epoch": "2025-12-02T06:09:21.187872",
        "meta_mean_motion": 14.18773726,
        "meta_eccentricity": 0.0053562,
        "meta_inclination": 98.5889,
        "meta_ra_of_asc_node": 340.9358,
        "meta_arg_of_pericenter": 340.0272,
        "meta_mean_anomaly": 34.7296,
        "meta_ephemeris_type": 0,
        "meta_classification_type": "U",
        "meta_norad_cat_id": 30355,
        "meta_element_set_no": 999,
        "meta_rev_at_epoch": 97202,
        "meta_bstar": 0.00084805,
        "meta_mean_motion_dot": 1.745e-05,
        "meta_mean_motion_ddot": 0,
        "tle_line1": "1 30355U 99025ABS 25336.25649523  .00001745  00000+0  84805-3 0  9990",
        "tle_line2": "2 30355  98.5889 340.9358 0053562 340.0272  34.7296 14.18773726972023"
      },
      "geometry": {
        "type": "Point",
        "coordinates": [
          134.54783395998072,
          -71.81350111973019
        ]
      }
    },
    {
      "type": "Feature",
      "properties": {
        "norad_id": 30356,
        "name": "FENGYUN 1C DEB",
        "group": "fengyun-1c-debris",
        "lat": -69.05322739265245,
        "lon": 129.2946926588435,
        "alt_km": 840.47228976941,
        "timestamp": "2025-12-03T06:58:43.513756+00:00",
        "meta_object_name": "FENGYUN 1C DEB",
        "meta_object_id": "1999-025ABT",
        "meta_epoch": "2025-12-02T13:20:40.255872",
        "meta_mean_motion": 14.12989658,
        "meta_eccentricity": 0.00522654,
        "meta_inclination": 98.6811,
        "meta_ra_of_asc_node": 332.1051,
        "meta_arg_of_pericenter": 318.2642,
        "meta_mean_anomaly": 157.6435,
        "meta_ephemeris_type": 0,
        "meta_classification_type": "U",
        "meta_norad_cat_id": 30356,
        "meta_element_set_no": 999,
        "meta_rev_at_epoch": 96877,
        "meta_bstar": 0.0009005723,
        "meta_mean_motion_dot": 1.658e-05,
        "meta_mean_motion_ddot": 0,
        "tle_line1": "1 30356U 99025ABT 25336.55602148  .00001658  00000+0  90057-3 0  9995",
        "tle_line2": "2 30356  98.6811 332.1051 0052265 318.2642 157.6435 14.12989658968774"
      },
      "geometry": {
        "type": "Point",
        "coordinates": [
          129.2946926588435,
          -69.05322739265245
        ]
      }
    },
    {
      "type": "Feature",
      "properties": {
        "norad_id": 30357,
        "name": "FENGYUN 1C DEB",
        "group": "fengyun-1c-debris",
        "lat": -18.840635367289348,
        "lon": 7.844985313477521,
        "alt_km": 846.2127000343289,
        "timestamp": "2025-12-03T06:58:43.513766+00:00",
        "meta_object_name": "FENGYUN 1C DEB",
        "meta_object_id": "1999-025ABU",
        "meta_epoch": "2025-12-02T13:00:32.078880",
        "meta_mean_motion": 14.05254709,
        "meta_eccentricity": 0.00492903,
        "meta_inclination": 98.8074,
        "meta_ra_of_asc_node": 4.0854,
        "meta_arg_of_pericenter": 358.8833,
        "meta_mean_anomaly": 156.5762,
        "meta_ephemeris_type": 0,
        "meta_classification_type": "U",
        "meta_norad_cat_id": 30357,
        "meta_element_set_no": 999,
        "meta_rev_at_epoch": 96663,
        "meta_bstar": 0.00032630936,
        "meta_mean_motion_dot": 4.91e-06,
        "meta_mean_motion_ddot": 0,
        "tle_line1": "1 30357U 99025ABU 25336.54203795  .00000491  00000+0  32631-3 0  9998",
        "tle_line2": "2 30357  98.8074   4.0854 0049290 358.8833 156.5762 14.05254709966638"
      },
      "geometry": {
        "type": "Point",
        "coordinates": [
          7.844985313477521,
          -18.840635367289348
        ]
      }
    },
    {
      "type": "Feature",
      "properties": {
        "norad_id": 30358,
        "name": "FENGYUN 1C DEB",
        "group": "fengyun-1c-debris",
        "lat": -30.714029460647502,
        "lon": -18.425110351728772,
        "alt_km": 771.9970271119637,
        "timestamp": "2025-12-03T06:58:43.513776+00:00",
        "meta_object_name": "FENGYUN 1C DEB",
        "meta_object_id": "1999-025ABV",
        "meta_epoch": "2025-12-02T11:31:52.002336",
        "meta_mean_motion": 14.20535225,
        "meta_eccentricity": 0.00829594,
        "meta_inclination": 98.5542,
        "meta_ra_of_asc_node": 165.921,
        "meta_arg_of_pericenter": 229.375,
        "meta_mean_anomaly": 160.3033,
        "meta_ephemeris_type": 0,
        "meta_classification_type": "U",
        "meta_norad_cat_id": 30358,
        "meta_element_set_no": 999,
        "meta_rev_at_epoch": 96772,
        "meta_bstar": 0.0023492857,
        "meta_mean_motion_dot": 5.186e-05,
        "meta_mean_motion_ddot": 0,
        "tle_line1": "1 30358U 99025ABV 25336.48046299  .00005186  00000+0  23493-2 0  9997",
        "tle_line2": "2 30358  98.5542 165.9210 0082959 229.3750 160.3033 14.20535225967725"
      },
      "geometry": {
        "type": "Point",
        "coordinates": [
          -18.425110351728772,
          -30.714029460647502
        ]
      }
    }
  ]
}